GOES 18
1 51850U 22021A   26192.75163609  .00000101  00000+0  00000+0 0  9993
2 51850   0.0131  84.2137 0000611 110.7308 228.2976  1.00272566  6831
